{"updated_at":"2026-06-13T08:20:15.482518Z","count":200,"data":[{"NORAD_CAT_ID":"69238","OBJECT_NAME":"STARLINK-37665","OBJECT_ID":"2026-117A","EPOCH":"2026-06-12T18:14:23.498016","TLE_LINE1":"1 69238U 26117A   26163.75999419  .00115016  00000-0  54797-3 0  9995","TLE_LINE2":"2 69238  53.1590 265.8444 0000624  63.8716 296.2371 15.82046781  2272"},{"NORAD_CAT_ID":"69239","OBJECT_NAME":"STARLINK-37558","OBJECT_ID":"2026-117B","EPOCH":"2026-06-12T18:13:01.577856","TLE_LINE1":"1 69239U 26117B   26163.75904604  .00168835  00000-0  79695-3 0  9999","TLE_LINE2":"2 69239  53.1592 265.8380 0001117  82.0230 278.0919 15.82069963  2279"},{"NORAD_CAT_ID":"69240","OBJECT_NAME":"STARLINK-37680","OBJECT_ID":"2026-117C","EPOCH":"2026-06-12T18:10:56.879328","TLE_LINE1":"1 69240U 26117C   26163.75760277  .00122064  00000-0  58078-3 0  9993","TLE_LINE2":"2 69240  53.1590 265.8280 0000626  82.7722 277.3373 15.82049995  2274"},{"NORAD_CAT_ID":"69241","OBJECT_NAME":"STARLINK-37742","OBJECT_ID":"2026-117D","EPOCH":"2026-06-12T18:08:23.071776","TLE_LINE1":"1 69241U 26117D   26163.75582259  .00180665  00000-0  85135-3 0  9991","TLE_LINE2":"2 69241  53.1593 265.8168 0001041  39.9170 320.1929 15.82070777  2272"},{"NORAD_CAT_ID":"69242","OBJECT_NAME":"STARLINK-37718","OBJECT_ID":"2026-117E","EPOCH":"2026-06-12T18:06:36.353088","TLE_LINE1":"1 69242U 26117E   26163.75458742  .00263220  00000-0  12250-2 0  9997","TLE_LINE2":"2 69242  53.1591 265.8089 0000887  47.0276 313.0822 15.82106034  2276"},{"NORAD_CAT_ID":"69243","OBJECT_NAME":"STARLINK-37735","OBJECT_ID":"2026-117F","EPOCH":"2026-06-12T18:06:27.002880","TLE_LINE1":"1 69243U 26117F   26163.75447920  .00261153  00000-0  12155-2 0  9991","TLE_LINE2":"2 69243  53.1590 265.8073 0000715 128.3199 231.7888 15.82109752  2274"},{"NORAD_CAT_ID":"69244","OBJECT_NAME":"STARLINK-37757","OBJECT_ID":"2026-117G","EPOCH":"2026-06-12T18:03:00.129312","TLE_LINE1":"1 69244U 26117G   26163.75208483  .00254702  00000-0  11867-2 0  9992","TLE_LINE2":"2 69244  53.1589 265.7913 0000496  68.0391 292.0685 15.82104203  2276"},{"NORAD_CAT_ID":"69245","OBJECT_NAME":"STARLINK-37767","OBJECT_ID":"2026-117H","EPOCH":"2026-06-12T17:56:51.645408","TLE_LINE1":"1 69245U 26117H   26163.74781997  .00155456  00000-0  73518-3 0  9996","TLE_LINE2":"2 69245  53.1585 265.7617 0001381 129.2905 230.8241 15.82070528  2279"},{"NORAD_CAT_ID":"69246","OBJECT_NAME":"STARLINK-35759","OBJECT_ID":"2026-117J","EPOCH":"2026-06-12T17:55:52.569408","TLE_LINE1":"1 69246U 26117J   26163.74713622  .00166269  00000-0  78499-3 0  9994","TLE_LINE2":"2 69246  53.1585 265.7573 0001063  49.4067 310.7048 15.82073433  2271"},{"NORAD_CAT_ID":"69247","OBJECT_NAME":"STARLINK-37238","OBJECT_ID":"2026-117K","EPOCH":"2026-06-12T17:49:28.796160","TLE_LINE1":"1 69247U 26117K   26163.74269440  .00234813  00000-0  10972-2 0  9991","TLE_LINE2":"2 69247  53.1585 265.7259 0000790  89.6639 270.4475 15.82097149  2276"},{"NORAD_CAT_ID":"69248","OBJECT_NAME":"STARLINK-37412","OBJECT_ID":"2026-117L","EPOCH":"2026-06-12T20:00:01.999008","TLE_LINE1":"1 69248U 26117L   26163.83335647 -.00124016  00000-0 -60099-3 0  9996","TLE_LINE2":"2 69248  53.1583 265.2334 0001468  53.7481 122.1896 15.82014565  3546"},{"NORAD_CAT_ID":"69249","OBJECT_NAME":"STARLINK-37398","OBJECT_ID":"2026-117M","EPOCH":"2026-06-12T20:00:01.999008","TLE_LINE1":"1 69249U 26117M   26163.83335647  .00025303  00000-0  13157-3 0  9997","TLE_LINE2":"2 69249  53.1590 265.2479 0001051  84.9659  83.8960 15.80837478  3545"},{"NORAD_CAT_ID":"69219","OBJECT_NAME":"STARLINK-37758","OBJECT_ID":"2026-115J","EPOCH":"2026-06-12T20:00:01.999008","TLE_LINE1":"1 69219U 26115J   26163.83335647 -.02436967  00000-0 -18252-1 0  9997","TLE_LINE2":"2 69219  97.2841 181.0818 0001816  83.8731 123.4985 15.76118798  3999"},{"NORAD_CAT_ID":"69220","OBJECT_NAME":"STARLINK-37201","OBJECT_ID":"2026-115K","EPOCH":"2026-06-12T20:00:01.999008","TLE_LINE1":"1 69220U 26115K   26163.83335647 -.02508516  00000-0 -18634-1 0  9993","TLE_LINE2":"2 69220  97.2837 181.0801 0001943  82.9635 118.5523 15.76417559  3992"},{"NORAD_CAT_ID":"69221","OBJECT_NAME":"STARLINK-37728","OBJECT_ID":"2026-115L","EPOCH":"2026-06-12T17:33:35.562240","TLE_LINE1":"1 69221U 26115L   26163.73166160  .00353412  00000-0  18613-2 0  9992","TLE_LINE2":"2 69221  97.2829 180.9786 0000040 335.4442  24.6823 15.79727981  3988"},{"NORAD_CAT_ID":"69222","OBJECT_NAME":"STARLINK-37760","OBJECT_ID":"2026-115M","EPOCH":"2026-06-12T20:00:01.999008","TLE_LINE1":"1 69222U 26115M   26163.83335647 -.02530952  00000-0 -17474-1 0  9995","TLE_LINE2":"2 69222  97.2836 181.0814 0001862  86.1212 117.4527 15.78087858  3993"},{"NORAD_CAT_ID":"69223","OBJECT_NAME":"STARLINK-37759","OBJECT_ID":"2026-115N","EPOCH":"2026-06-12T20:00:01.999008","TLE_LINE1":"1 69223U 26115N   26163.83335647 -.02496710  00000-0 -30089-1 0  9996","TLE_LINE2":"2 69223  97.2839 181.0497 0001655  64.2470  69.7374 15.64253531  3994"},{"NORAD_CAT_ID":"69224","OBJECT_NAME":"STARLINK-37725","OBJECT_ID":"2026-115P","EPOCH":"2026-06-11T21:47:26.856672","TLE_LINE1":"1 69224U 26115P   26162.90794973  .00065735  00000-0  34123-3 0  9995","TLE_LINE2":"2 69224  97.2831 180.1139 0001924  42.0646 318.0770 15.80822011  3856"},{"NORAD_CAT_ID":"69225","OBJECT_NAME":"STARLINK-37770","OBJECT_ID":"2026-115Q","EPOCH":"2026-06-12T19:04:49.931040","TLE_LINE1":"1 69225U 26115Q   26163.79502235 -.00580175  00000-0 -33718-2 0  9992","TLE_LINE2":"2 69225  97.2827 181.0455 0002385  27.4147 332.7246 15.79896182  3992"},{"NORAD_CAT_ID":"69226","OBJECT_NAME":"STARLINK-37736","OBJECT_ID":"2026-115R","EPOCH":"2026-06-12T20:00:01.999008","TLE_LINE1":"1 69226U 26115R   26163.83335647 -.01677256  00000-0 -12106-1 0  9994","TLE_LINE2":"2 69226  97.2838 181.0856 0001444  97.1618 117.7253 15.76251863  3999"},{"NORAD_CAT_ID":"69227","OBJECT_NAME":"STARLINK-37737","OBJECT_ID":"2026-115S","EPOCH":"2026-06-12T19:00:52.132320","TLE_LINE1":"1 69227U 26115S   26163.79227005 -.00983753  00000-0 -60046-2 0  9996","TLE_LINE2":"2 69227  97.2832 181.0491 0001011  77.6550 282.4831 15.79859872  3996"},{"NORAD_CAT_ID":"69228","OBJECT_NAME":"STARLINK-37618","OBJECT_ID":"2026-115T","EPOCH":"2026-06-12T20:00:01.999008","TLE_LINE1":"1 69228U 26115T   26163.83335647 -.02512574  00000-0 -31966-1 0  9993","TLE_LINE2":"2 69228  97.2834 181.0547 0001933  87.2421  58.8166 15.62904978  3994"},{"NORAD_CAT_ID":"69229","OBJECT_NAME":"STARLINK-37679","OBJECT_ID":"2026-115U","EPOCH":"2026-06-12T20:00:01.999008","TLE_LINE1":"1 69229U 26115U   26163.83335647 -.01306793  00000-0 -15984-1 0  9999","TLE_LINE2":"2 69229  97.2838 181.0566 0001629  78.7782  71.8678 15.63338913  3991"},{"NORAD_CAT_ID":"69230","OBJECT_NAME":"STARLINK-37746","OBJECT_ID":"2026-115V","EPOCH":"2026-06-12T20:00:01.999008","TLE_LINE1":"1 69230U 26115V   26163.83335647 -.02536340  00000-0 -33168-1 0  9999","TLE_LINE2":"2 69230  97.2833 181.0455 0001674  65.9273  57.5968 15.62243621  3991"},{"NORAD_CAT_ID":"69231","OBJECT_NAME":"STARLINK-37557","OBJECT_ID":"2026-115W","EPOCH":"2026-06-12T20:00:01.999008","TLE_LINE1":"1 69231U 26115W   26163.83335647 -.02637904  00000-0 -45025-1 0  9993","TLE_LINE2":"2 69231  97.2841 181.0103 0001394  87.2957 303.4554 15.54763878  3992"},{"NORAD_CAT_ID":"69232","OBJECT_NAME":"STARLINK-37745","OBJECT_ID":"2026-115X","EPOCH":"2026-06-12T20:20:55.376160","TLE_LINE1":"1 69232U 26115X   26163.84786315 -.01026885  00000-0 -64895-2 0  9993","TLE_LINE2":"2 69232  97.2827 181.1269 0001186 177.2223 182.9051 15.79210115  4009"},{"NORAD_CAT_ID":"69233","OBJECT_NAME":"STARLINK-37739","OBJECT_ID":"2026-115Y","EPOCH":"2026-06-12T20:00:01.999008","TLE_LINE1":"1 69233U 26115Y   26163.83335647 -.01125796  00000-0 -14316-1 0  9994","TLE_LINE2":"2 69233  97.2837 181.0383 0001550  68.1331  35.3411 15.61925454  3998"},{"NORAD_CAT_ID":"69234","OBJECT_NAME":"STARLINK-37755","OBJECT_ID":"2026-115Z","EPOCH":"2026-06-12T19:29:13.098624","TLE_LINE1":"1 69234U 26115Z   26163.81195716  .00056517  00000-0  37716-3 0  9996","TLE_LINE2":"2 69234  97.2835 181.0231 0001282  62.8487 297.2908 15.75197260  3995"},{"NORAD_CAT_ID":"69235","OBJECT_NAME":"TJS-24","OBJECT_ID":"2026-116A","EPOCH":"2026-06-12T20:28:16.704768","TLE_LINE1":"1 69235U 26116A   26163.85297112 -.00000217  00000-0  00000+0 0  9994","TLE_LINE2":"2 69235   0.0119 268.1128 0000468 154.1040 236.3191  1.00269275   185"},{"NORAD_CAT_ID":"69236","OBJECT_NAME":"CZ-7A R/B","OBJECT_ID":"2026-116B","EPOCH":"2026-05-26T21:56:07.164384","TLE_LINE1":"1 69236U 26116B   26146.91397181  .00049818 -36870-6  75664-4 0  9993","TLE_LINE2":"2 69236  19.5460 149.3523 7251658 178.3837 187.0911  2.38711174    24"}]}