OBJECT_NAME,OBJECT_ID,EPOCH,MEAN_MOTION,ECCENTRICITY,INCLINATION,RA_OF_ASC_NODE,ARG_OF_PERICENTER,MEAN_ANOMALY,EPHEMERIS_TYPE,CLASSIFICATION_TYPE,NORAD_CAT_ID,ELEMENT_SET_NO,REV_AT_EPOCH,BSTAR,MEAN_MOTION_DOT,MEAN_MOTION_DDOT
STARLINK-37758,2026-115J,2026-06-12T20:00:01.999008,15.76118798,.0001816,97.2841,181.0818,83.8731,123.4985,0,U,69219,999,399,-.18252E-1,-.2436967E-1,0
STARLINK-37201,2026-115K,2026-06-12T20:00:01.999008,15.76417559,.0001943,97.2837,181.0801,82.9635,118.5523,0,U,69220,999,399,-.18634E-1,-.2508516E-1,0
STARLINK-37728,2026-115L,2026-06-12T17:33:35.562240,15.79727981,.000004,97.2829,180.9786,335.4442,24.6823,0,U,69221,999,398,.18613E-2,.353412E-2,0
STARLINK-37760,2026-115M,2026-06-12T20:00:01.999008,15.78087858,.0001862,97.2836,181.0814,86.1212,117.4527,0,U,69222,999,399,-.17474E-1,-.2530952E-1,0
STARLINK-37759,2026-115N,2026-06-12T20:00:01.999008,15.64253531,.0001655,97.2839,181.0497,64.2470,69.7374,0,U,69223,999,399,-.30089E-1,-.249671E-1,0
STARLINK-37725,2026-115P,2026-06-11T21:47:26.856672,15.80822011,.00019239,97.2831,180.1139,42.0646,318.0770,0,U,69224,999,385,.34123097E-3,.65735E-3,0
STARLINK-37770,2026-115Q,2026-06-12T19:04:49.931040,15.79896182,.0002385,97.2827,181.0455,27.4147,332.7246,0,U,69225,999,399,-.33718E-2,-.580175E-2,0
STARLINK-37736,2026-115R,2026-06-12T20:00:01.999008,15.76251863,.0001444,97.2838,181.0856,97.1618,117.7253,0,U,69226,999,399,-.12106E-1,-.1677256E-1,0
STARLINK-37737,2026-115S,2026-06-12T19:00:52.132320,15.79859872,.0001011,97.2832,181.0491,77.6550,282.4831,0,U,69227,999,399,-.60046E-2,-.983753E-2,0
STARLINK-37618,2026-115T,2026-06-12T20:00:01.999008,15.62904978,.0001933,97.2834,181.0547,87.2421,58.8166,0,U,69228,999,399,-.31966E-1,-.2512574E-1,0
STARLINK-37679,2026-115U,2026-06-12T20:00:01.999008,15.63338913,.0001629,97.2838,181.0566,78.7782,71.8678,0,U,69229,999,399,-.15984E-1,-.1306793E-1,0
STARLINK-37746,2026-115V,2026-06-12T20:00:01.999008,15.62243621,.0001674,97.2833,181.0455,65.9273,57.5968,0,U,69230,999,399,-.33168E-1,-.253634E-1,0
STARLINK-37557,2026-115W,2026-06-12T20:00:01.999008,15.54763878,.0001394,97.2841,181.0103,87.2957,303.4554,0,U,69231,999,399,-.45025E-1,-.2637904E-1,0
STARLINK-37745,2026-115X,2026-06-12T20:20:55.376160,15.79210115,.0001186,97.2827,181.1269,177.2223,182.9051,0,U,69232,999,400,-.64895E-2,-.1026885E-1,0
STARLINK-37739,2026-115Y,2026-06-12T20:00:01.999008,15.61925454,.000155,97.2837,181.0383,68.1331,35.3411,0,U,69233,999,399,-.14316E-1,-.1125796E-1,0
STARLINK-37755,2026-115Z,2026-06-12T19:29:13.098624,15.75197260,.0001282,97.2835,181.0231,62.8487,297.2908,0,U,69234,999,399,.37716E-3,.56517E-3,0
TJS-24,2026-116A,2026-06-12T20:28:16.704768,1.00269275,.0000468,0.0119,268.1128,154.1040,236.3191,0,U,69235,999,18,0,-.217E-5,0
CZ-7A R/B,2026-116B,2026-05-26T21:56:07.164384,2.38711174,.72516577,19.5460,149.3523,178.3837,187.0911,0,U,69236,999,2,.75663565E-4,.49818E-3,-.368698E-6
STARLINK-37665,2026-117A,2026-06-12T18:14:23.498016,15.82046781,.0000624,53.1590,265.8444,63.8716,296.2371,0,U,69238,999,227,.54797E-3,.115016E-2,0
STARLINK-37558,2026-117B,2026-06-12T18:13:01.577856,15.82069963,.0001117,53.1592,265.8380,82.0230,278.0919,0,U,69239,999,227,.79695E-3,.168835E-2,0
STARLINK-37680,2026-117C,2026-06-12T18:10:56.879328,15.82049995,.0000626,53.1590,265.8280,82.7722,277.3373,0,U,69240,999,227,.58078E-3,.122064E-2,0
STARLINK-37742,2026-117D,2026-06-12T18:08:23.071776,15.82070777,.0001041,53.1593,265.8168,39.9170,320.1929,0,U,69241,999,227,.85135E-3,.180665E-2,0
STARLINK-37718,2026-117E,2026-06-12T18:06:36.353088,15.82106034,.0000887,53.1591,265.8089,47.0276,313.0822,0,U,69242,999,227,.1225E-2,.26322E-2,0
STARLINK-37735,2026-117F,2026-06-12T18:06:27.002880,15.82109752,.0000715,53.1590,265.8073,128.3199,231.7888,0,U,69243,999,227,.12155E-2,.261153E-2,0
STARLINK-37757,2026-117G,2026-06-12T18:03:00.129312,15.82104203,.0000496,53.1589,265.7913,68.0391,292.0685,0,U,69244,999,227,.11867E-2,.254702E-2,0
STARLINK-37767,2026-117H,2026-06-12T17:56:51.645408,15.82070528,.0001381,53.1585,265.7617,129.2905,230.8241,0,U,69245,999,227,.73518E-3,.155456E-2,0
STARLINK-35759,2026-117J,2026-06-12T17:55:52.569408,15.82073433,.0001063,53.1585,265.7573,49.4067,310.7048,0,U,69246,999,227,.78499E-3,.166269E-2,0
STARLINK-37238,2026-117K,2026-06-12T17:49:28.796160,15.82097149,.000079,53.1585,265.7259,89.6639,270.4475,0,U,69247,999,227,.10972E-2,.234813E-2,0
STARLINK-37412,2026-117L,2026-06-12T20:00:01.999008,15.82014565,.0001468,53.1583,265.2334,53.7481,122.1896,0,U,69248,999,354,-.60099E-3,-.124016E-2,0
STARLINK-37398,2026-117M,2026-06-12T20:00:01.999008,15.80837478,.0001051,53.1590,265.2479,84.9659,83.8960,0,U,69249,999,354,.13157E-3,.25303E-3,0
